{
  "type": "FeatureCollection",
  "features": [
    {
      "type": "Feature",
      "properties": {
        "norad_id": 32376,
        "name": "COSMO-SKYMED 2",
        "group": "resource",
        "lat": 35.688577315602984,
        "lon": 152.14427529757535,
        "alt_km": 619.3675812786314,
        "timestamp": "2025-12-02T08:59:32.376174+00:00",
        "meta_object_name": "COSMO-SKYMED 2",
        "meta_object_id": "2007-059A",
        "meta_epoch": "2025-12-01T19:52:05.554848",
        "meta_mean_motion": 14.82171664,
        "meta_eccentricity": 0.000147,
        "meta_inclination": 97.8807,
        "meta_ra_of_asc_node": 157.3156,
        "meta_arg_of_pericenter": 85.1487,
        "meta_mean_anomaly": 274.9894,
        "meta_ephemeris_type": 0,
        "meta_classification_type": "U",
        "meta_norad_cat_id": 32376,
        "meta_element_set_no": 999,
        "meta_rev_at_epoch": 97276,
        "meta_bstar": 9.0755e-05,
        "meta_mean_motion_dot": 6.71e-06,
        "meta_mean_motion_ddot": 0,
        "tle_line1": "1 32376U 07059A   25335.82784207  .00000671  00000+0  90755-4 0  9991",
        "tle_line2": "2 32376  97.8807 157.3156 0001470  85.1487 274.9894 14.82171664972769"
      },
      "geometry": {
        "type": "Point",
        "coordinates": [
          152.14427529757535,
          35.688577315602984
        ]
      }
    },
    {
      "type": "Feature",
      "properties": {
        "norad_id": 32382,
        "name": "RADARSAT-2",
        "group": "resource",
        "lat": 50.57321495363014,
        "lon": 171.6963920637339,
        "alt_km": 786.5151437479581,
        "timestamp": "2025-12-02T08:59:32.376186+00:00",
        "meta_object_name": "RADARSAT-2",
        "meta_object_id": "2007-061A",
        "meta_epoch": "2025-12-01T20:38:17.382624",
        "meta_mean_motion": 14.29982856,
        "meta_eccentricity": 0.0001081,
        "meta_inclination": 98.58,
        "meta_ra_of_asc_node": 340.6081,
        "meta_arg_of_pericenter": 90.3883,
        "meta_mean_anomaly": 269.7423,
        "meta_ephemeris_type": 0,
        "meta_classification_type": "U",
        "meta_norad_cat_id": 32382,
        "meta_element_set_no": 999,
        "meta_rev_at_epoch": 93775,
        "meta_bstar": 5.4977e-05,
        "meta_mean_motion_dot": 9.8e-07,
        "meta_mean_motion_ddot": 0,
        "tle_line1": "1 32382U 07061A   25335.85992341  .00000098  00000+0  54977-4 0  9993",
        "tle_line2": "2 32382  98.5800 340.6081 0001081  90.3883 269.7423 14.29982856937751"
      },
      "geometry": {
        "type": "Point",
        "coordinates": [
          171.6963920637339,
          50.57321495363014
        ]
      }
    },
    {
      "type": "Feature",
      "properties": {
        "norad_id": 32783,
        "name": "CARTOSAT-2A",
        "group": "resource",
        "lat": -62.69792533400765,
        "lon": 41.91029537864873,
        "alt_km": 641.594318464141,
        "timestamp": "2025-12-02T08:59:32.376199+00:00",
        "meta_object_name": "CARTOSAT-2A",
        "meta_object_id": "2008-021A",
        "meta_epoch": "2025-12-02T04:24:30.559392",
        "meta_mean_motion": 14.78903811,
        "meta_eccentricity": 0.0012565,
        "meta_inclination": 97.7946,
        "meta_ra_of_asc_node": 26.3364,
        "meta_arg_of_pericenter": 37.5342,
        "meta_mean_anomaly": 322.6745,
        "meta_ephemeris_type": 0,
        "meta_classification_type": "U",
        "meta_norad_cat_id": 32783,
        "meta_element_set_no": 999,
        "meta_rev_at_epoch": 94968,
        "meta_bstar": 0.00015642,
        "meta_mean_motion_dot": 1.104e-05,
        "meta_mean_motion_ddot": 0,
        "tle_line1": "1 32783U 08021A   25336.18368703  .00001104  00000+0  15642-3 0  9995",
        "tle_line2": "2 32783  97.7946  26.3364 0012565  37.5342 322.6745 14.78903811949681"
      },
      "geometry": {
        "type": "Point",
        "coordinates": [
          41.91029537864873,
          -62.69792533400765
        ]
      }
    },
    {
      "type": "Feature",
      "properties": {
        "norad_id": 33320,
        "name": "HUANJING 1A (HJ-1A)",
        "group": "resource",
        "lat": -4.039658771906488,
        "lon": -34.349062269960655,
        "alt_km": 617.4577296964962,
        "timestamp": "2025-12-02T08:59:32.376210+00:00",
        "meta_object_name": "HUANJING 1A (HJ-1A)",
        "meta_object_id": "2008-041A",
        "meta_epoch": "2025-12-02T05:46:21.713376",
        "meta_mean_motion": 14.83339261,
        "meta_eccentricity": 0.002068,
        "meta_inclination": 97.6533,
        "meta_ra_of_asc_node": 324.9783,
        "meta_arg_of_pericenter": 66.8541,
        "meta_mean_anomaly": 293.485,
        "meta_ephemeris_type": 0,
        "meta_classification_type": "U",
        "meta_norad_cat_id": 33320,
        "meta_element_set_no": 999,
        "meta_rev_at_epoch": 92920,
        "meta_bstar": 0.00022129,
        "meta_mean_motion_dot": 1.769e-05,
        "meta_mean_motion_ddot": 0,
        "tle_line1": "1 33320U 08041A   25336.24052909  .00001769  00000+0  22129-3 0  9995",
        "tle_line2": "2 33320  97.6533 324.9783 0020680  66.8541 293.4850 14.83339261929201"
      },
      "geometry": {
        "type": "Point",
        "coordinates": [
          -34.349062269960655,
          -4.039658771906488
        ]
      }
    },
    {
      "type": "Feature",
      "properties": {
        "norad_id": 33321,
        "name": "HUANJING 1B (HJ-1B)",
        "group": "resource",
        "lat": -58.13251900621638,
        "lon": 136.36201728947782,
        "alt_km": 644.9384373840558,
        "timestamp": "2025-12-02T08:59:32.376221+00:00",
        "meta_object_name": "HUANJING 1B (HJ-1B)",
        "meta_object_id": "2008-041B",
        "meta_epoch": "2025-12-02T04:40:56.272800",
        "meta_mean_motion": 14.82776334,
        "meta_eccentricity": 0.0038134,
        "meta_inclination": 97.6395,
        "meta_ra_of_asc_node": 328.6592,
        "meta_arg_of_pericenter": 109.0893,
        "meta_mean_anomaly": 251.4457,
        "meta_ephemeris_type": 0,
        "meta_classification_type": "U",
        "meta_norad_cat_id": 33321,
        "meta_element_set_no": 999,
        "meta_rev_at_epoch": 92921,
        "meta_bstar": 0.00018004,
        "meta_mean_motion_dot": 1.422e-05,
        "meta_mean_motion_ddot": 0,
        "tle_line1": "1 33321U 08041B   25336.19509575  .00001422  00000+0  18004-3 0  9999",
        "tle_line2": "2 33321  97.6395 328.6592 0038134 109.0893 251.4457 14.82776334929213"
      },
      "geometry": {
        "type": "Point",
        "coordinates": [
          136.36201728947782,
          -58.13251900621638
        ]
      }
    },
    {
      "type": "Feature",
      "properties": {
        "norad_id": 33331,
        "name": "GEOEYE 1",
        "group": "resource",
        "lat": 4.857644210223621,
        "lon": -131.51982410422292,
        "alt_km": 681.8837719942385,
        "timestamp": "2025-12-02T08:59:32.376231+00:00",
        "meta_object_name": "GEOEYE 1",
        "meta_object_id": "2008-042A",
        "meta_epoch": "2025-12-02T04:55:01.111008",
        "meta_mean_motion": 14.64788259,
        "meta_eccentricity": 0.0003041,
        "meta_inclination": 98.1265,
        "meta_ra_of_asc_node": 47.6167,
        "meta_arg_of_pericenter": 322.0999,
        "meta_mean_anomaly": 37.9989,
        "meta_ephemeris_type": 0,
        "meta_classification_type": "U",
        "meta_norad_cat_id": 33331,
        "meta_element_set_no": 999,
        "meta_rev_at_epoch": 92131,
        "meta_bstar": 0.00014846,
        "meta_mean_motion_dot": 7.44e-06,
        "meta_mean_motion_ddot": 0,
        "tle_line1": "1 33331U 08042A   25336.20487397  .00000744  00000+0  14846-3 0  9996",
        "tle_line2": "2 33331  98.1265  47.6167 0003041 322.0999  37.9989 14.64788259921314"
      },
      "geometry": {
        "type": "Point",
        "coordinates": [
          -131.51982410422292,
          4.857644210223621
        ]
      }
    },
    {
      "type": "Feature",
      "properties": {
        "norad_id": 33396,
        "name": "THEOS",
        "group": "resource",
        "lat": -74.74088348843443,
        "lon": -178.87017744116244,
        "alt_km": 833.0676280496737,
        "timestamp": "2025-12-02T08:59:32.376242+00:00",
        "meta_object_name": "THEOS",
        "meta_object_id": "2008-049A",
        "meta_epoch": "2025-12-01T19:56:50.621280",
        "meta_mean_motion": 14.20092499,
        "meta_eccentricity": 0.0001089,
        "meta_inclination": 98.5883,
        "meta_ra_of_asc_node": 34.2418,
        "meta_arg_of_pericenter": 100.4517,
        "meta_mean_anomaly": 259.6783,
        "meta_ephemeris_type": 0,
        "meta_classification_type": "U",
        "meta_norad_cat_id": 33396,
        "meta_element_set_no": 999,
        "meta_rev_at_epoch": 88995,
        "meta_bstar": 5.5461e-05,
        "meta_mean_motion_dot": 7.6e-07,
        "meta_mean_motion_ddot": 0,
        "tle_line1": "1 33396U 08049A   25335.83114145  .00000076  00000+0  55461-4 0  9997",
        "tle_line2": "2 33396  98.5883  34.2418 0001089 100.4517 259.6783 14.20092499889954"
      },
      "geometry": {
        "type": "Point",
        "coordinates": [
          -178.87017744116244,
          -74.74088348843443
        ]
      }
    }
  ]
}